COMMENT,ORIGINATOR,NORAD_CAT_ID,OBJECT_NAME,OBJECT_TYPE,CLASSIFICATION_TYPE,INTLDES,EPOCH,EPOCH_MICROSECONDS,MEAN_MOTION,ECCENTRICITY,INCLINATION,RA_OF_ASC_NODE,ARG_OF_PERICENTER,MEAN_ANOMALY,EPHEMERIS_TYPE,ELEMENT_SET_NO,REV_AT_EPOCH,BSTAR,MEAN_MOTION_DOT,MEAN_MOTION_DDOT,FILE,TLE_LINE0,TLE_LINE1,TLE_LINE2,OBJECT_ID,OBJECT_NUMBER,SEMIMAJOR_AXIS,PERIOD,APOGEE,PERIGEE,DECAYED
"GENERATED VIA SPACETRACK.ORG API","18 SPCS","55096","SPACEBEE-161","PAYLOAD","U","23001CR","2024-05-18 14:32:45","400128","15.44679246","0.0009597","97.4203","205.3105","239.7997","120.2302","0","999","7651","0.0022235","0.00105027","0","4321083","0 SPACEBEE-161","1 55096U 23001CR  24139.60608102  .00105027  00000-0  22235-2 0  9994","2 55096  97.4203 205.3105 0009597 239.7997 120.2302 15.44679246 76511","2023-001CR","55096","6810.458","93.223","438.859","425.787","0"
"GENERATED VIA SPACETRACK.ORG API","18 SPCS","55096","SPACEBEE-161","PAYLOAD","U","23001CR","2024-05-18 17:39:19","304640","15.44714819","0.0009686","97.422","205.4439","239.7185","120.3105","0","999","7653","0.0022269","0.00105322","0","4321362","0 SPACEBEE-161","1 55096U 23001CR  24139.73564010  .00105322  00000-0  22269-2 0  9992","2 55096  97.4220 205.4439 0009686 239.7185 120.3105 15.44714819 76539","2023-001CR","55096","6810.353","93.221","438.815","425.622","0"
"GENERATED VIA SPACETRACK.ORG API","18 SPCS","55096","SPACEBEE-161","PAYLOAD","U","23001CR","2024-05-18 17:39:19","304640","15.44714819","0.0009686","97.422","205.4439","239.7185","120.3105","0","999","7653","0.0022269","0.00105322","0","4321432","0 SPACEBEE-161","1 55096U 23001CR  24139.73564010  .00105322  00000-0  22269-2 0  9992","2 55096  97.4220 205.4439 0009686 239.7185 120.3105 15.44714819 76539","2023-001CR","55096","6810.353","93.221","438.815","425.622","0"
"GENERATED VIA SPACETRACK.ORG API","18 SPCS","55096","SPACEBEE-161","PAYLOAD","U","23001CR","2024-05-19 02:58:59","854368","15.44798768","0.0009725","97.4218","205.8405","237.8725","122.1581","0","999","7659","0.0020595","0.00097581","0","4321746","0 SPACEBEE-161","1 55096U 23001CR  24140.12430387  .00097581  00000-0  20595-2 0  9993","2 55096  97.4218 205.8405 0009725 237.8725 122.1581 15.44798768 76595","2023-001CR","55096","6810.106","93.216","438.594","425.349","0"
"GENERATED VIA SPACETRACK.ORG API","18 SPCS","55096","SPACEBEE-161","PAYLOAD","U","23001CR","2024-05-20 03:51:19","746144","15.45005746","0.0009766","97.4219","206.8998","235.9431","124.0891","0","999","7675","0.0018666","0.0008896","0","4322267","0 SPACEBEE-161","1 55096U 23001CR  24141.16064521  .00088960  00000-0  18666-2 0  9998","2 55096  97.4219 206.8998 0009766 235.9431 124.0891 15.45005746 76753","2023-001CR","55096","6809.498","93.204","438.013","424.713","0"
"GENERATED VIA SPACETRACK.ORG API","18 SPCS","55096","SPACEBEE-161","PAYLOAD","U","23001CR","2024-05-20 03:51:19","746144","15.45005746","0.0009766","97.4219","206.8998","235.9431","124.0891","0","999","7675","0.0018666","0.0008896","0","4322688","0 SPACEBEE-161","1 55096U 23001CR  24141.16064521  .00088960  00000-0  18666-2 0  9998","2 55096  97.4219 206.8998 0009766 235.9431 124.0891 15.45005746 76753","2023-001CR","55096","6809.498","93.204","438.013","424.713","0"
"GENERATED VIA SPACETRACK.ORG API","18 SPCS","55096","SPACEBEE-161","PAYLOAD","U","23001CR","2024-05-21 03:10:12","715104","15.45189044","0.000985","97.4217","207.8926","233.0966","126.938","0","999","7690","0.0019803","0.0009505","0","4323214","0 SPACEBEE-161","1 55096U 23001CR  24142.13209161  .00095050  00000-0  19803-2 0  9999","2 55096  97.4217 207.8926 0009850 233.0966 126.9380 15.45189044 76904","2023-001CR","55096","6808.960","93.192","437.531","424.118","0"
"GENERATED VIA SPACETRACK.ORG API","18 SPCS","55096","SPACEBEE-161","PAYLOAD","U","23001CR","2024-05-21 03:10:12","715104","15.45189044","0.000985","97.4217","207.8926","233.0966","126.938","0","999","7690","0.0019803","0.0009505","0","4323618","0 SPACEBEE-161","1 55096U 23001CR  24142.13209161  .00095050  00000-0  19803-2 0  9999","2 55096  97.4217 207.8926 0009850 233.0966 126.9380 15.45189044 76904","2023-001CR","55096","6808.960","93.192","437.531","424.118","0"
"GENERATED VIA SPACETRACK.ORG API","18 SPCS","55096","SPACEBEE-161","PAYLOAD","U","23001CR","2024-05-21 17:09:27","925056","15.45288817","0.0009823","97.4216","208.4889","231.1647","128.8726","0","999","7699","0.0017903","0.00086115","0","4323884","0 SPACEBEE-161","1 55096U 23001CR  24142.71490654  .00086115  00000-0  17903-2 0  9993","2 55096  97.4216 208.4889 0009823 231.1647 128.8726 15.45288817 76995","2023-001CR","55096","6808.667","93.186","437.220","423.843","0"
"GENERATED VIA SPACETRACK.ORG API","18 SPCS","55096","SPACEBEE-161","PAYLOAD","U","23001CR","2024-05-22 04:02:10","674240","15.453751","0.000991","97.4214","208.9521","229.4869","130.5517","0","999","7706","0.0016993","0.00081933","0","4324163","0 SPACEBEE-161","1 55096U 23001CR  24143.16817910  .00081933  00000-0  16993-2 0  9992","2 55096  97.4214 208.9521 0009910 229.4869 130.5517 15.45375100 77063","2023-001CR","55096","6808.413","93.181","437.025","423.531","0"
"GENERATED VIA SPACETRACK.ORG API","18 SPCS","55096","SPACEBEE-161","PAYLOAD","U","23001CR","2024-05-22 04:02:10","674240","15.453751","0.000991","97.4214","208.9521","229.4869","130.5517","0","999","7706","0.0016993","0.00081933","0","4324498","0 SPACEBEE-161","1 55096U 23001CR  24143.16817910  .00081933  00000-0  16993-2 0  9992","2 55096  97.4214 208.9521 0009910 229.4869 130.5517 15.45375100 77063","2023-001CR","55096","6808.413","93.181","437.025","423.531","0"
"GENERATED VIA SPACETRACK.ORG API","18 SPCS","55096","SPACEBEE-161","PAYLOAD","U","23001CR","2024-05-23 03:20:44","191968","15.45537643","0.0010033","97.421","209.9451","226.7102","133.3311","0","999","7721","0.0015735","0.00076231","0","4325336","0 SPACEBEE-161","1 55096U 23001CR  24144.13940037  .00076231  00000-0  15735-2 0  9995","2 55096  97.4210 209.9451 0010033 226.7102 133.3311 15.45537643 77212","2023-001CR","55096","6807.936","93.171","436.631","422.970","0"
"GENERATED VIA SPACETRACK.ORG API","18 SPCS","55096","SPACEBEE-161","PAYLOAD","U","23001CR","2024-05-23 17:19:48","76608","15.4563653","0.0010042","97.4212","210.5416","224.7802","135.2637","0","999","7730","0.0016534","0.0008042","0","4325454","0 SPACEBEE-161","1 55096U 23001CR  24144.72208422  .00080420  00000-0  16534-2 0  9998","2 55096  97.4212 210.5416 0010042 224.7802 135.2637 15.45636530 77305","2023-001CR","55096","6807.645","93.165","436.347","422.674","0"
"GENERATED VIA SPACETRACK.ORG API","18 SPCS","55096","SPACEBEE-161","PAYLOAD","U","23001CR","2024-05-23 17:19:48","76608","15.4563653","0.0010042","97.4212","210.5416","224.7802","135.2637","0","999","7730","0.0016534","0.0008042","0","4325574","0 SPACEBEE-161","1 55096U 23001CR  24144.72208422  .00080420  00000-0  16534-2 0  9998","2 55096  97.4212 210.5416 0010042 224.7802 135.2637 15.45636530 77305","2023-001CR","55096","6807.645","93.165","436.347","422.674","0"
"GENERATED VIA SPACETRACK.ORG API","18 SPCS","55096","SPACEBEE-161","PAYLOAD","U","23001CR","2024-05-24 04:12:21","930912","15.45729643","0.0010093","97.4208","211.005","223.0416","137.0044","0","999","7737","0.001769","0.00086389","0","4325745","0 SPACEBEE-161","1 55096U 23001CR  24145.17525383  .00086389  00000-0  17690-2 0  9990","2 55096  97.4208 211.0050 0010093 223.0416 137.0044 15.45729643 77376","2023-001CR","55096","6807.372","93.160","436.108","422.366","0"
"GENERATED VIA SPACETRACK.ORG API","18 SPCS","55096","SPACEBEE-161","PAYLOAD","U","23001CR","2024-05-24 04:12:21","930912","15.45729643","0.0010093","97.4208","211.005","223.0416","137.0044","0","999","7737","0.001769","0.00086389","0","4326215","0 SPACEBEE-161","1 55096U 23001CR  24145.17525383  .00086389  00000-0  17690-2 0  9990","2 55096  97.4208 211.0050 0010093 223.0416 137.0044 15.45729643 77376","2023-001CR","55096","6807.372","93.160","436.108","422.366","0"
"GENERATED VIA SPACETRACK.ORG API","18 SPCS","55096","SPACEBEE-161","PAYLOAD","U","23001CR","2024-05-24 18:11:19","522176","15.45833966","0.0010042","97.4204","211.6011","222.4992","137.5481","0","999","7746","0.0017294","0.00084736","0","4326555","0 SPACEBEE-161","1 55096U 23001CR  24145.75786484  .00084736  00000-0  17294-2 0  9999","2 55096  97.4204 211.6011 0010042 222.4992 137.5481 15.45833966 77465","2023-001CR","55096","6807.066","93.154","435.766","422.095","0"
"GENERATED VIA SPACETRACK.ORG API","18 SPCS","55096","SPACEBEE-161","PAYLOAD","U","23001CR","2024-05-25 03:30:36","66528","15.45894648","0.0010301","97.4207","211.9979","220.4034","139.6451","0","999","7752","0.0014494","0.00071033","0","4327213","0 SPACEBEE-161","1 55096U 23001CR  24146.14625077  .00071033  00000-0  14494-2 0  9998","2 55096  97.4207 211.9979 0010301 220.4034 139.6451 15.45894648 77528","2023-001CR","55096","6806.888","93.150","435.764","421.741","0"
"GENERATED VIA SPACETRACK.ORG API","18 SPCS","55096","SPACEBEE-161","PAYLOAD","U","23001CR","2024-05-25 17:29:28","561056","15.45978551","0.0010241","97.4205","212.5944","219.1243","140.9266","0","999","7761","0.0013775","0.00067668","0","4327355","0 SPACEBEE-161","1 55096U 23001CR  24146.72880279  .00067668  00000-0  13775-2 0  9999","2 55096  97.4205 212.5944 0010241 219.1243 140.9266 15.45978551 77610","2023-001CR","55096","6806.641","93.145","435.477","421.536","0"
"GENERATED VIA SPACETRACK.ORG API","18 SPCS","55096","SPACEBEE-161","PAYLOAD","U","23001CR","2024-05-26 04:21:54","97632","15.46046053","0.0010432","97.4204","213.0577","216.6811","143.3725","0","999","7768","0.0013335","0.00065643","0","4328092","0 SPACEBEE-161","1 55096U 23001CR  24147.18187613  .00065643  00000-0  13335-2 0  9995","2 55096  97.4204 213.0577 0010432 216.6811 143.3725 15.46046053 77680","2023-001CR","55096","6806.443","93.141","435.409","421.208","0"
